{
  "type": "FeatureCollection",
  "features": [
    {
      "type": "Feature",
      "properties": {
        "norad_id": 31448,
        "name": "FENGYUN 1C DEB",
        "group": "fengyun-1c-debris",
        "lat": 26.337701030303144,
        "lon": -165.3961097175148,
        "alt_km": 756.4864571706821,
        "timestamp": "2025-12-25T09:48:52.572546+00:00",
        "meta_object_name": "FENGYUN 1C DEB",
        "meta_object_id": "1999-025BUL",
        "meta_epoch": "2025-12-20T18:05:54.538080",
        "meta_mean_motion": 14.27837488,
        "meta_eccentricity": 0.00593925,
        "meta_inclination": 98.4998,
        "meta_ra_of_asc_node": 5.8293,
        "meta_arg_of_pericenter": 180.4564,
        "meta_mean_anomaly": 179.6573,
        "meta_ephemeris_type": 0,
        "meta_classification_type": "U",
        "meta_norad_cat_id": 31448,
        "meta_element_set_no": 999,
        "meta_rev_at_epoch": 64418,
        "meta_bstar": 0.00043686395,
        "meta_mean_motion_dot": 1.058e-05,
        "meta_mean_motion_ddot": 0,
        "tle_line1": "1 31448U 99025BUL 25354.75410345  .00001058  00000+0  43686-3 0  9996",
        "tle_line2": "2 31448  98.4998   5.8293 0059392 180.4564 179.6573 14.27837488644185"
      },
      "geometry": {
        "type": "Point",
        "coordinates": [
          -165.3961097175148,
          26.337701030303144
        ]
      }
    },
    {
      "type": "Feature",
      "properties": {
        "norad_id": 31449,
        "name": "FENGYUN 1C DEB",
        "group": "fengyun-1c-debris",
        "lat": 44.51684608169791,
        "lon": 49.27419394978779,
        "alt_km": 878.13692050387,
        "timestamp": "2025-12-25T09:48:52.572573+00:00",
        "meta_object_name": "FENGYUN 1C DEB",
        "meta_object_id": "1999-025BUM",
        "meta_epoch": "2025-12-20T10:40:43.619520",
        "meta_mean_motion": 14.33719628,
        "meta_eccentricity": 0.01441603,
        "meta_inclination": 98.5539,
        "meta_ra_of_asc_node": 52.876,
        "meta_arg_of_pericenter": 245.7554,
        "meta_mean_anomaly": 112.8511,
        "meta_ephemeris_type": 0,
        "meta_classification_type": "U",
        "meta_norad_cat_id": 31449,
        "meta_element_set_no": 999,
        "meta_rev_at_epoch": 97747,
        "meta_bstar": 0.00016710121,
        "meta_mean_motion_dot": 4.73e-06,
        "meta_mean_motion_ddot": 0,
        "tle_line1": "1 31449U 99025BUM 25354.44494930  .00000473  00000+0  16710-3 0  9993",
        "tle_line2": "2 31449  98.5539  52.8760 0144160 245.7554 112.8511 14.33719628977475"
      },
      "geometry": {
        "type": "Point",
        "coordinates": [
          49.27419394978779,
          44.51684608169791
        ]
      }
    },
    {
      "type": "Feature",
      "properties": {
        "norad_id": 31451,
        "name": "FENGYUN 1C DEB",
        "group": "fengyun-1c-debris",
        "lat": -18.090078974670895,
        "lon": 44.1129669382483,
        "alt_km": 874.113140617822,
        "timestamp": "2025-12-25T09:48:52.572585+00:00",
        "meta_object_name": "FENGYUN 1C DEB",
        "meta_object_id": "1999-025BUP",
        "meta_epoch": "2025-12-24T01:46:07.992768",
        "meta_mean_motion": 14.13639411,
        "meta_eccentricity": 0.00317113,
        "meta_inclination": 98.7622,
        "meta_ra_of_asc_node": 39.9171,
        "meta_arg_of_pericenter": 179.5002,
        "meta_mean_anomaly": 210.8483,
        "meta_ephemeris_type": 0,
        "meta_classification_type": "U",
        "meta_norad_cat_id": 31451,
        "meta_element_set_no": 999,
        "meta_rev_at_epoch": 96170,
        "meta_bstar": 0.00034326728,
        "meta_mean_motion_dot": 6.08e-06,
        "meta_mean_motion_ddot": 0,
        "tle_line1": "1 31451U 99025BUP 25358.07370362  .00000608  00000+0  34327-3 0  9995",
        "tle_line2": "2 31451  98.7622  39.9171 0031711 179.5002 210.8483 14.13639411961709"
      },
      "geometry": {
        "type": "Point",
        "coordinates": [
          44.1129669382483,
          -18.090078974670895
        ]
      }
    },
    {
      "type": "Feature",
      "properties": {
        "norad_id": 31452,
        "name": "FENGYUN 1C DEB",
        "group": "fengyun-1c-debris",
        "lat": -50.283392763363494,
        "lon": -3.44920023911028,
        "alt_km": 872.2799172931036,
        "timestamp": "2025-12-25T09:48:52.572594+00:00",
        "meta_object_name": "FENGYUN 1C DEB",
        "meta_object_id": "1999-025BUQ",
        "meta_epoch": "2025-12-23T05:27:15.172416",
        "meta_mean_motion": 14.15182355,
        "meta_eccentricity": 0.00410856,
        "meta_inclination": 98.6593,
        "meta_ra_of_asc_node": 343.8624,
        "meta_arg_of_pericenter": 98.5,
        "meta_mean_anomaly": 262.0834,
        "meta_ephemeris_type": 0,
        "meta_classification_type": "U",
        "meta_norad_cat_id": 31452,
        "meta_element_set_no": 999,
        "meta_rev_at_epoch": 96354,
        "meta_bstar": 0.00033085609,
        "meta_mean_motion_dot": 6.06e-06,
        "meta_mean_motion_ddot": 0,
        "tle_line1": "1 31452U 99025BUQ 25357.22725894  .00000606  00000+0  33086-3 0  9995",
        "tle_line2": "2 31452  98.6593 343.8624 0041085  98.5000 262.0834 14.15182355963544"
      },
      "geometry": {
        "type": "Point",
        "coordinates": [
          -3.44920023911028,
          -50.283392763363494
        ]
      }
    },
    {
      "type": "Feature",
      "properties": {
        "norad_id": 31455,
        "name": "FENGYUN 1C DEB",
        "group": "fengyun-1c-debris",
        "lat": 58.94245759339635,
        "lon": -178.40614160142624,
        "alt_km": 885.5671048419354,
        "timestamp": "2025-12-25T09:48:52.572605+00:00",
        "meta_object_name": "FENGYUN 1C DEB",
        "meta_object_id": "1999-025BUT",
        "meta_epoch": "2025-12-22T16:36:48.499200",
        "meta_mean_motion": 14.1144215,
        "meta_eccentricity": 0.02182431,
        "meta_inclination": 98.575,
        "meta_ra_of_asc_node": 344.4862,
        "meta_arg_of_pericenter": 22.9407,
        "meta_mean_anomaly": 338.1335,
        "meta_ephemeris_type": 0,
        "meta_classification_type": "U",
        "meta_norad_cat_id": 31455,
        "meta_element_set_no": 999,
        "meta_rev_at_epoch": 96244,
        "meta_bstar": 0.00028245585,
        "meta_mean_motion_dot": 5.98e-06,
        "meta_mean_motion_ddot": 0,
        "tle_line1": "1 31455U 99025BUT 25356.69222800  .00000598  00000+0  28246-3 0  9999",
        "tle_line2": "2 31455  98.5750 344.4862 0218243  22.9407 338.1335 14.11442150962443"
      },
      "geometry": {
        "type": "Point",
        "coordinates": [
          -178.40614160142624,
          58.94245759339635
        ]
      }
    },
    {
      "type": "Feature",
      "properties": {
        "norad_id": 31456,
        "name": "FENGYUN 1C DEB",
        "group": "fengyun-1c-debris",
        "lat": 69.88539798271884,
        "lon": 77.49001063010743,
        "alt_km": 787.6234656313081,
        "timestamp": "2025-12-25T09:48:52.572615+00:00",
        "meta_object_name": "FENGYUN 1C DEB",
        "meta_object_id": "1999-025BUU",
        "meta_epoch": "2025-12-24T13:30:13.574304",
        "meta_mean_motion": 14.42460106,
        "meta_eccentricity": 0.00677313,
        "meta_inclination": 98.5771,
        "meta_ra_of_asc_node": 100.9758,
        "meta_arg_of_pericenter": 278.3285,
        "meta_mean_anomaly": 81.0228,
        "meta_ephemeris_type": 0,
        "meta_classification_type": "U",
        "meta_norad_cat_id": 31456,
        "meta_element_set_no": 999,
        "meta_rev_at_epoch": 97637,
        "meta_bstar": 0.00090042843,
        "meta_mean_motion_dot": 3.019e-05,
        "meta_mean_motion_ddot": 0,
        "tle_line1": "1 31456U 99025BUU 25358.56265711  .00003019  00000+0  90043-3 0  9991",
        "tle_line2": "2 31456  98.5771 100.9758 0067731 278.3285  81.0228 14.42460106976378"
      },
      "geometry": {
        "type": "Point",
        "coordinates": [
          77.49001063010743,
          69.88539798271884
        ]
      }
    },
    {
      "type": "Feature",
      "properties": {
        "norad_id": 31459,
        "name": "FENGYUN 1C DEB",
        "group": "fengyun-1c-debris",
        "lat": 81.27641228356534,
        "lon": 156.74059741332601,
        "alt_km": 670.1054967601185,
        "timestamp": "2025-12-25T09:48:52.572625+00:00",
        "meta_object_name": "FENGYUN 1C DEB",
        "meta_object_id": "1999-025BUX",
        "meta_epoch": "2025-12-12T23:44:38.705568",
        "meta_mean_motion": 14.44083824,
        "meta_eccentricity": 0.00940456,
        "meta_inclination": 98.1765,
        "meta_ra_of_asc_node": 255.2445,
        "meta_arg_of_pericenter": 130.906,
        "meta_mean_anomaly": 230.0325,
        "meta_ephemeris_type": 0,
        "meta_classification_type": "U",
        "meta_norad_cat_id": 31459,
        "meta_element_set_no": 999,
        "meta_rev_at_epoch": 64561,
        "meta_bstar": 0.0020176648,
        "meta_mean_motion_dot": 7.253e-05,
        "meta_mean_motion_ddot": 0,
        "tle_line1": "1 31459U 99025BUX 25346.98933687  .00007253  00000+0  20177-2 0  9995",
        "tle_line2": "2 31459  98.1765 255.2445 0094045 130.9060 230.0325 14.44083824645613"
      },
      "geometry": {
        "type": "Point",
        "coordinates": [
          156.74059741332601,
          81.27641228356534
        ]
      }
    }
  ]
}